[
  {
    "OBJECT_NAME": "STARLINK-35269",
    "OBJECT_ID": "25207B",
    "EPOCH": "2025-11-11T04:19:06.123936",
    "MEAN_MOTION": 15.3932735,
    "ECCENTRICITY": 0.0001741,
    "INCLINATION": 97.6066,
    "RA_OF_ASC_NODE": 19.744,
    "ARG_OF_PERICENTER": 85.2967,
    "MEAN_ANOMALY": 274.8477,
    "EPHEMERIS_TYPE": 0,
    "CLASSIFICATION_TYPE": "U",
    "NORAD_CAT_ID": 65593,
    "ELEMENT_SET_NO": 999,
    "REV_AT_EPOCH": 1028,
    "BSTAR": 0.0011638,
    "MEAN_MOTION_DOT": 0.00045553,
    "MEAN_MOTION_DDOT": 0.0,
    "TLE_LINE1": "1 65593U 25207B   25315.17993199  .00045553  00000+0  11638-2 0  9990",
    "TLE_LINE2": "2 65593  97.6066  19.7440 0001741  85.2967 274.8477 15.39327350 10287",
    "COMMENT": "Grouped by shell and plane from TLE"
  },
  {
    "OBJECT_NAME": "STARLINK-35191",
    "OBJECT_ID": "25207C",
    "EPOCH": "2025-11-11T04:43:00.418368",
    "MEAN_MOTION": 15.3936856,
    "ECCENTRICITY": 0.00015,
    "INCLINATION": 97.6043,
    "RA_OF_ASC_NODE": 19.719,
    "ARG_OF_PERICENTER": 89.6163,
    "MEAN_ANOMALY": 270.5253,
    "EPHEMERIS_TYPE": 0,
    "CLASSIFICATION_TYPE": "U",
    "NORAD_CAT_ID": 65594,
    "ELEMENT_SET_NO": 999,
    "REV_AT_EPOCH": 1012,
    "BSTAR": 0.0021994000000000002,
    "MEAN_MOTION_DOT": 0.00086741,
    "MEAN_MOTION_DDOT": 0.0,
    "TLE_LINE1": "1 65594U 25207C   25315.19653262  .00086741  00000+0  21994-2 0  9997",
    "TLE_LINE2": "2 65594  97.6043  19.7190 0001500  89.6163 270.5253 15.39368560 10120",
    "COMMENT": "Grouped by shell and plane from TLE"
  },
  {
    "OBJECT_NAME": "STARLINK-35261",
    "OBJECT_ID": "25207D",
    "EPOCH": "2025-11-11T03:56:12.794208",
    "MEAN_MOTION": 15.39380146,
    "ECCENTRICITY": 0.0001522,
    "INCLINATION": 97.6021,
    "RA_OF_ASC_NODE": 19.7624,
    "ARG_OF_PERICENTER": 86.7181,
    "MEAN_ANOMALY": 273.4238,
    "EPHEMERIS_TYPE": 0,
    "CLASSIFICATION_TYPE": "U",
    "NORAD_CAT_ID": 65595,
    "ELEMENT_SET_NO": 999,
    "REV_AT_EPOCH": 1029,
    "BSTAR": 0.0012418,
    "MEAN_MOTION_DOT": 0.00048713,
    "MEAN_MOTION_DDOT": 0.0,
    "TLE_LINE1": "1 65595U 25207D   25315.16403697  .00048713  00000+0  12418-2 0  9998",
    "TLE_LINE2": "2 65595  97.6021  19.7624 0001522  86.7181 273.4238 15.39380146 10298",
    "COMMENT": "Grouped by shell and plane from TLE"
  },
  {
    "OBJECT_NAME": "STARLINK-35253",
    "OBJECT_ID": "25207E",
    "EPOCH": "2025-11-11T03:21:22.489632",
    "MEAN_MOTION": 15.39326115,
    "ECCENTRICITY": 7.55e-05,
    "INCLINATION": 97.6043,
    "RA_OF_ASC_NODE": 19.6399,
    "ARG_OF_PERICENTER": 133.088,
    "MEAN_ANOMALY": 227.0428,
    "EPHEMERIS_TYPE": 0,
    "CLASSIFICATION_TYPE": "U",
    "NORAD_CAT_ID": 65596,
    "ELEMENT_SET_NO": 999,
    "REV_AT_EPOCH": 1007,
    "BSTAR": 0.0016539999999999999,
    "MEAN_MOTION_DOT": 0.00064936,
    "MEAN_MOTION_DDOT": 0.0,
    "TLE_LINE1": "1 65596U 25207E   25315.13984363  .00064936  00000+0  16540-2 0  9995",
    "TLE_LINE2": "2 65596  97.6043  19.6399 0000755 133.0880 227.0428 15.39326115 10078",
    "COMMENT": "Grouped by shell and plane from TLE"
  },
  {
    "OBJECT_NAME": "STARLINK-35263",
    "OBJECT_ID": "25207F",
    "EPOCH": "2025-11-11T04:31:03.027072",
    "MEAN_MOTION": 15.39356144,
    "ECCENTRICITY": 0.0001231,
    "INCLINATION": 97.6066,
    "RA_OF_ASC_NODE": 19.7319,
    "ARG_OF_PERICENTER": 54.8043,
    "MEAN_ANOMALY": 305.3317,
    "EPHEMERIS_TYPE": 0,
    "CLASSIFICATION_TYPE": "U",
    "NORAD_CAT_ID": 65597,
    "ELEMENT_SET_NO": 999,
    "REV_AT_EPOCH": 1029,
    "BSTAR": 0.0015886000000000001,
    "MEAN_MOTION_DOT": 0.00062403,
    "MEAN_MOTION_DDOT": 0.0,
    "TLE_LINE1": "1 65597U 25207F   25315.18822948  .00062403  00000+0  15886-2 0  9990",
    "TLE_LINE2": "2 65597  97.6066  19.7319 0001231  54.8043 305.3317 15.39356144 10294",
    "COMMENT": "Grouped by shell and plane from TLE"
  },
  {
    "OBJECT_NAME": "STARLINK-35248",
    "OBJECT_ID": "25207G",
    "EPOCH": "2025-11-11T04:07:39.119520",
    "MEAN_MOTION": 15.39395428,
    "ECCENTRICITY": 0.0001563,
    "INCLINATION": 97.608,
    "RA_OF_ASC_NODE": 19.7546,
    "ARG_OF_PERICENTER": 81.4689,
    "MEAN_ANOMALY": 278.6734,
    "EPHEMERIS_TYPE": 0,
    "CLASSIFICATION_TYPE": "U",
    "NORAD_CAT_ID": 65598,
    "ELEMENT_SET_NO": 999,
    "REV_AT_EPOCH": 1029,
    "BSTAR": 0.0012254,
    "MEAN_MOTION_DOT": 0.0004809,
    "MEAN_MOTION_DDOT": 0.0,
    "TLE_LINE1": "1 65598U 25207G   25315.17198055  .00048090  00000+0  12254-2 0  9997",
    "TLE_LINE2": "2 65598  97.6080  19.7546 0001563  81.4689 278.6734 15.39395428 10296",
    "COMMENT": "Grouped by shell and plane from TLE"
  },
  {
    "OBJECT_NAME": "STARLINK-35245",
    "OBJECT_ID": "25207H",
    "EPOCH": "2025-11-11T03:45:17.542656",
    "MEAN_MOTION": 15.39364164,
    "ECCENTRICITY": 0.0002352,
    "INCLINATION": 97.6031,
    "RA_OF_ASC_NODE": 19.7741,
    "ARG_OF_PERICENTER": 100.8295,
    "MEAN_ANOMALY": 259.3215,
    "EPHEMERIS_TYPE": 0,
    "CLASSIFICATION_TYPE": "U",
    "NORAD_CAT_ID": 65599,
    "ELEMENT_SET_NO": 999,
    "REV_AT_EPOCH": 1029,
    "BSTAR": 0.0014569,
    "MEAN_MOTION_DOT": 0.00057201,
    "MEAN_MOTION_DDOT": 0.0,
    "TLE_LINE1": "1 65599U 25207H   25315.15645304  .00057201  00000+0  14569-2 0  9995",
    "TLE_LINE2": "2 65599  97.6031  19.7741 0002352 100.8295 259.3215 15.39364164 10299",
    "COMMENT": "Grouped by shell and plane from TLE"
  },
  {
    "OBJECT_NAME": "STARLINK-35229",
    "OBJECT_ID": "25207J",
    "EPOCH": "2025-11-11T03:27:35.986464",
    "MEAN_MOTION": 15.39376327,
    "ECCENTRICITY": 0.0001501,
    "INCLINATION": 97.6031,
    "RA_OF_ASC_NODE": 19.6326,
    "ARG_OF_PERICENTER": 103.1682,
    "MEAN_ANOMALY": 256.973,
    "EPHEMERIS_TYPE": 0,
    "CLASSIFICATION_TYPE": "U",
    "NORAD_CAT_ID": 65600,
    "ELEMENT_SET_NO": 999,
    "REV_AT_EPOCH": 1028,
    "BSTAR": 0.0013396,
    "MEAN_MOTION_DOT": 0.00052575,
    "MEAN_MOTION_DDOT": 0.0,
    "TLE_LINE1": "1 65600U 25207J   25315.14416651  .00052575  00000+0  13396-2 0  9994",
    "TLE_LINE2": "2 65600  97.6031  19.6326 0001501 103.1682 256.9730 15.39376327 10289",
    "COMMENT": "Grouped by shell and plane from TLE"
  },
  {
    "OBJECT_NAME": "STARLINK-35234",
    "OBJECT_ID": "25207K",
    "EPOCH": "2025-11-11T03:15:37.468512",
    "MEAN_MOTION": 15.39373696,
    "ECCENTRICITY": 0.0002018,
    "INCLINATION": 97.6048,
    "RA_OF_ASC_NODE": 19.6465,
    "ARG_OF_PERICENTER": 111.3549,
    "MEAN_ANOMALY": 248.7911,
    "EPHEMERIS_TYPE": 0,
    "CLASSIFICATION_TYPE": "U",
    "NORAD_CAT_ID": 65601,
    "ELEMENT_SET_NO": 999,
    "REV_AT_EPOCH": 1028,
    "BSTAR": 0.0010111,
    "MEAN_MOTION_DOT": 0.00039592,
    "MEAN_MOTION_DDOT": 0.0,
    "TLE_LINE1": "1 65601U 25207K   25315.13585033  .00039592  00000+0  10111-2 0  9991",
    "TLE_LINE2": "2 65601  97.6048  19.6465 0002018 111.3549 248.7911 15.39373696 10285",
    "COMMENT": "Grouped by shell and plane from TLE"
  },
  {
    "OBJECT_NAME": "STARLINK-35255",
    "OBJECT_ID": "25207L",
    "EPOCH": "2025-11-11T04:25:19.673472",
    "MEAN_MOTION": 15.3936304,
    "ECCENTRICITY": 0.0002393,
    "INCLINATION": 97.6067,
    "RA_OF_ASC_NODE": 19.738,
    "ARG_OF_PERICENTER": 106.4613,
    "MEAN_ANOMALY": 253.6896,
    "EPHEMERIS_TYPE": 0,
    "CLASSIFICATION_TYPE": "U",
    "NORAD_CAT_ID": 65602,
    "ELEMENT_SET_NO": 999,
    "REV_AT_EPOCH": 1029,
    "BSTAR": 0.0011426000000000001,
    "MEAN_MOTION_DOT": 0.00044771,
    "MEAN_MOTION_DDOT": 0.0,
    "TLE_LINE1": "1 65602U 25207L   25315.18425548  .00044771  00000+0  11426-2 0  9996",
    "TLE_LINE2": "2 65602  97.6067  19.7380 0002393 106.4613 253.6896 15.39363040 10297",
    "COMMENT": "Grouped by shell and plane from TLE"
  },
  {
    "OBJECT_NAME": "STARLINK-35250",
    "OBJECT_ID": "25207M",
    "EPOCH": "2025-11-11T04:02:27.047040",
    "MEAN_MOTION": 15.39382528,
    "ECCENTRICITY": 0.0001891,
    "INCLINATION": 97.6036,
    "RA_OF_ASC_NODE": 19.7577,
    "ARG_OF_PERICENTER": 95.3089,
    "MEAN_ANOMALY": 264.8372,
    "EPHEMERIS_TYPE": 0,
    "CLASSIFICATION_TYPE": "U",
    "NORAD_CAT_ID": 65603,
    "ELEMENT_SET_NO": 999,
    "REV_AT_EPOCH": 1029,
    "BSTAR": 0.0013131000000000002,
    "MEAN_MOTION_DOT": 0.00051538,
    "MEAN_MOTION_DDOT": 0.0,
    "TLE_LINE1": "1 65603U 25207M   25315.16836860  .00051538  00000+0  13131-2 0  9992",
    "TLE_LINE2": "2 65603  97.6036  19.7577 0001891  95.3089 264.8372 15.39382528 10292",
    "COMMENT": "Grouped by shell and plane from TLE"
  },
  {
    "OBJECT_NAME": "STARLINK-35251",
    "OBJECT_ID": "25207N",
    "EPOCH": "2025-11-11T04:36:45.997920",
    "MEAN_MOTION": 15.39376495,
    "ECCENTRICITY": 0.0001798,
    "INCLINATION": 97.6027,
    "RA_OF_ASC_NODE": 19.7228,
    "ARG_OF_PERICENTER": 88.8688,
    "MEAN_ANOMALY": 271.2763,
    "EPHEMERIS_TYPE": 0,
    "CLASSIFICATION_TYPE": "U",
    "NORAD_CAT_ID": 65604,
    "ELEMENT_SET_NO": 999,
    "REV_AT_EPOCH": 1029,
    "BSTAR": 0.0018762000000000002,
    "MEAN_MOTION_DOT": 0.0007388,
    "MEAN_MOTION_DDOT": 0.0,
    "TLE_LINE1": "1 65604U 25207N   25315.19219905  .00073880  00000+0  18762-2 0  9990",
    "TLE_LINE2": "2 65604  97.6027  19.7228 0001798  88.8688 271.2763 15.39376495 10296",
    "COMMENT": "Grouped by shell and plane from TLE"
  },
  {
    "OBJECT_NAME": "STARLINK-35171",
    "OBJECT_ID": "25207P",
    "EPOCH": "2025-11-11T04:14:24.595584",
    "MEAN_MOTION": 15.39387973,
    "ECCENTRICITY": 0.0001272,
    "INCLINATION": 97.603,
    "RA_OF_ASC_NODE": 19.7466,
    "ARG_OF_PERICENTER": 63.597,
    "MEAN_ANOMALY": 296.5406,
    "EPHEMERIS_TYPE": 0,
    "CLASSIFICATION_TYPE": "U",
    "NORAD_CAT_ID": 65605,
    "ELEMENT_SET_NO": 999,
    "REV_AT_EPOCH": 1013,
    "BSTAR": 0.0021065999999999997,
    "MEAN_MOTION_DOT": 0.00083091,
    "MEAN_MOTION_DDOT": 0.0,
    "TLE_LINE1": "1 65605U 25207P   25315.17667356  .00083091  00000+0  21066-2 0  9992",
    "TLE_LINE2": "2 65605  97.6030  19.7466 0001272  63.5970 296.5406 15.39387973 10136",
    "COMMENT": "Grouped by shell and plane from TLE"
  }
]